$$SOE
2460721.500000000, A.D. 2025-Feb-15 00:00:00.0000, -2.353442662243344E+08, -3.784412885549815E+08, -1.739982147962847E+07,
2460728.500000000, A.D. 2025-Feb-22 00:00:00.0000, -2.271828536698741E+08, -3.832073923196210E+08, -1.531746047499833E+07,
2460735.500000000, A.D. 2025-Mar-01 00:00:00.0000, -2.188969198392322E+08, -3.877635224705156E+08, -1.322670390283051E+07,
2460742.500000000, A.D. 2025-Mar-08 00:00:00.0000, -2.104907827736499E+08, -3.921067905251561E+08, -1.112868476606518E+07,
2460749.500000000, A.D. 2025-Mar-15 00:00:00.0000, -2.019688151774536E+08, -3.962343637015379E+08, -9.024542840605468E+06,
2460756.500000000, A.D. 2025-Mar-22 00:00:00.0000, -1.933354477522579E+08, -4.001434648304978E+08, -6.915424632194400E+06,
2460763.500000000, A.D. 2025-Mar-29 00:00:00.0000, -1.845951712062724E+08, -4.038313746302169E+08, -4.802483643024713E+06,
2460770.500000000, A.D. 2025-Apr-05 00:00:00.0000, -1.757525366116605E+08, -4.072954332094673E+08, -2.686880720946670E+06,
2460777.500000000, A.D. 2025-Apr-12 00:00:00.0000, -1.668121560341893E+08, -4.105330406994518E+08, -5.697843054198623E+05,
2460784.500000000, A.D. 2025-Apr-19 00:00:00.0000, -1.577787036203600E+08, -4.135416578986685E+08, 1.547629375741422E+06,
2460791.500000000, A.D. 2025-Apr-26 00:00:00.0000, -1.486569168681053E+08, -4.163188071364260E+08, 3.664176118172705E+06,
2460798.500000000, A.D. 2025-May-03 00:00:00.0000, -1.394515979647036E+08, -4.188620733379939E+08, 5.778663553333730E+06,
2460805.500000000, A.D. 2025-May-10 00:00:00.0000, -1.301676151600436E+08, -4.211691052846747E+08, 7.889890960421115E+06,
2460812.500000000, A.D. 2025-May-17 00:00:00.0000, -1.208099041343919E+08, -4.232376171119115E+08, 9.996649071963191E+06,
2460819.500000000, A.D. 2025-May-24 00:00:00.0000, -1.113834691817521E+08, -4.250653901029176E+08, 1.209771985350245E+07,
2460826.500000000, A.D. 2025-May-31 00:00:00.0000, -1.018933837859198E+08, -4.266502744715394E+08, 1.419187624531484E+07,
2460833.500000000, A.D. 2025-Jun-07 00:00:00.0000, -9.234479098587991E+07, -4.279901899352239E+08, 1.627788200247458E+07,
2460840.500000000, A.D. 2025-Jun-14 00:00:00.0000, -8.274290589120080E+07, -4.290831257497565E+08, 1.835449179688331E+07,
2460847.500000000, A.D. 2025-Jun-21 00:00:00.0000, -7.309301912586503E+07, -4.299271434814212E+08, 2.042045120359907E+07,
2460854.500000000, A.D. 2025-Jun-28 00:00:00.0000, -6.340049806698029E+07, -4.305203807574137E+08, 2.247449643026802E+07,
2460861.500000000, A.D. 2025-Jul-05 00:00:00.0000, -5.367078738966834E+07, -4.308610538438420E+08, 2.451535410678360E+07,
2460868.500000000, A.D. 2025-Jul-12 00:00:00.0000, -4.390941010320079E+07, -4.309474598619653E+08, 2.654174118046671E+07,
2460875.500000000, A.D. 2025-Jul-19 00:00:00.0000, -3.412196888245053E+07, -4.307779792230170E+08, 2.855236485432371E+07,
2460882.500000000, A.D. 2025-Jul-26 00:00:00.0000, -2.431414747802463E+07, -4.303510783433357E+08, 3.054592254649565E+07,
2460889.500000000, A.D. 2025-Aug-02 00:00:00.0000, -1.449171213228947E+07, -4.296653126231472E+08, 3.252110186869068E+07,
2460896.500000000, A.D. 2025-Aug-09 00:00:00.0000, -4.660512969602490E+06, -4.287193297089047E+08, 3.447658062244017E+07,
2460903.500000000, A.D. 2025-Aug-16 00:00:00.0000, 5.173514724970634E+06, -4.275118731082165E+08, 3.641102680346107E+07,
2460910.500000000, A.D. 2025-Aug-23 00:00:00.0000, 1.500434964011271E+07, -4.260417861468061E+08, 3.832309859144482E+07,
2460917.500000000, A.D. 2025-Aug-30 00:00:00.0000, 2.482588432426626E+07, -4.243080155591021E+08, 4.021144435642980E+07,
2460924.500000000, A.D. 2025-Sep-06 00:00:00.0000, 3.463192441511583E+07, -4.223096137169736E+08, 4.207470289654103E+07,
2460931.500000000, A.D. 2025-Sep-13 00:00:00.0000, 4.441618555310202E+07, -4.200457419829558E+08, 4.391150386018357E+07,
2460938.500000000, A.D. 2025-Sep-20 00:00:00.0000, 5.417229126544949E+07, -4.175156768362265E+08, 4.572046792093582E+07,
2460945.500000000, A.D. 2025-Sep-27 00:00:00.0000, 6.389377289333708E+07, -4.147188156653402E+08, 4.750020686577667E+07,
2460952.500000000, A.D. 2025-Oct-04 00:00:00.0000, 7.357406955970302E+07, -4.116546816938879E+08, 4.924932382940979E+07,
2460959.500000000, A.D. 2025-Oct-11 00:00:00.0000, 8.320652781896284E+07, -4.083229289863639E+08, 5.096641363560586E+07,
2460966.500000000, A.D. 2025-Oct-18 00:00:00.0000, 9.278440128823690E+07, -4.047233478121623E+08, 5.265006320086314E+07,
2460973.500000000, A.D. 2025-Oct-25 00:00:00.0000, 1.023008504164966E+08, -4.008558703593508E+08, 5.429885199221520E+07,
2460980.500000000, A.D. 2025-Nov-01 00:00:00.0000, 1.117489424491769E+08, -3.967205767842874E+08, 5.591135254046874E+07,
2460987.500000000, A.D. 2025-Nov-08 00:00:00.0000, 1.211216516426740E+08, -3.923177016292527E+08, 5.748613100684021E+07,
2460994.500000000, A.D. 2025-Nov-15 00:00:00.0000, 1.304118598981857E+08, -3.876476406673685E+08, 5.902174778879867E+07,
2461001.500000000, A.D. 2025-Nov-22 00:00:00.0000, 1.396123582402082E+08, -3.827109579554940E+08, 6.051675815091139E+07,
2461008.500000000, A.D. 2025-Nov-29 00:00:00.0000, 1.487158490095896E+08, -3.775083919601209E+08, 6.196971299253781E+07,
2461015.500000000, A.D. 2025-Dec-06 00:00:00.0000, 1.577149465173134E+08, -3.720408608900375E+08, 6.337915995495623E+07,
2461022.500000000, A.D. 2025-Dec-13 00:00:00.0000, 1.666021766179053E+08, -3.663094706007571E+08, 6.474364455712202E+07,
2461029.500000000, A.D. 2025-Dec-20 00:00:00.0000, 1.753699787237105E+08, -3.603155240414180E+08, 6.606171112821896E+07,
2461036.500000000, A.D. 2025-Dec-27 00:00:00.0000, 1.840107092156615E+08, -3.540605296470688E+08, 6.733190385321312E+07,
2461043.500000000, A.D. 2026-Jan-03 00:00:00.0000, 1.925166448206534E+08, -3.475462092842856E+08, 6.855276802113006E+07,
2461050.500000000, A.D. 2026-Jan-10 00:00:00.0000, 2.008799860945819E+08, -3.407745064182982E+08, 6.972285141639838E+07,
2461057.500000000, A.D. 2026-Jan-17 00:00:00.0000, 2.090928612730095E+08, -3.337475945787931E+08, 7.084070582968958E+07,
2461064.500000000, A.D. 2026-Jan-24 00:00:00.0000, 2.171473305975132E+08, -3.264678860829816E+08, 7.190488868724597E+07,
2461071.500000000, A.D. 2026-Jan-31 00:00:00.0000, 2.250353911733415E+08, -3.189380410001377E+08, 7.291396479941934E+07,
2461078.500000000, A.D. 2026-Feb-07 00:00:00.0000, 2.327489824555020E+08, -3.111609763884743E+08, 7.386650822173809E+07,
2461085.500000000, A.D. 2026-Feb-14 00:00:00.0000, 2.402799926553246E+08, -3.031398757920859E+08, 7.476110420917922E+07,
2461092.500000000, A.D. 2026-Feb-21 00:00:00.0000, 2.476202664950337E+08, -2.948781983936754E+08, 7.559635128226891E+07,
2461099.500000000, A.D. 2026-Feb-28 00:00:00.0000, 2.547616132631543E+08, -2.863796866411061E+08, 7.637086360614637E+07,
2461106.500000000, A.D. 2026-Mar-07 00:00:00.0000, 2.616958131461454E+08, -2.776483742637544E+08, 7.708327371747622E+07,
2461113.500000000, A.D. 2026-Mar-14 00:00:00.0000, 2.684146246445585E+08, -2.686885969692877E+08, 7.773223515713881E+07,
2461120.500000000, A.D. 2026-Mar-21 00:00:00.0000, 2.749097948906568E+08, -2.595050028755416E+08, 7.831642508484927E+07,
2461127.500000000, A.D. 2026-Mar-28 00:00:00.0000, 2.811730708920494E+08, -2.501025615981354E+08, 7.883454714703533E+07,
2461134.500000000, A.D. 2026-Apr-04 00:00:00.0000, 2.871962111295901E+08, -2.404865729039339E+08, 7.928533457663439E+07,
2461141.500000000, A.D. 2026-Apr-11 00:00:00.0000, 2.929709978132541E+08, -2.306626752293039E+08, 7.966755347152787E+07,
2461148.500000000, A.D. 2026-Apr-18 00:00:00.0000, 2.984892499826602E+08, -2.206368540035695E+08, 7.998000623681286E+07,
2461155.500000000, A.D. 2026-Apr-25 00:00:00.0000, 3.037428375223249E+08, -2.104154496915334E+08, 8.022153518723814E+07,
2461162.500000000, A.D. 2026-May-02 00:00:00.0000, 3.087236961422723E+08, -2.000051655080243E+08, 8.039102630243385E+07,
2461169.500000000, A.D. 2026-May-09 00:00:00.0000, 3.134238434630423E+08, -1.894130747879553E+08, 8.048741311385584E+07,
2461176.500000000, A.D. 2026-May-16 00:00:00.0000, 3.178353965924124E+08, -1.786466277838618E+08, 8.050968069396459E+07,
2461183.500000000, A.D. 2026-May-23 00:00:00.0000, 3.219505912514361E+08, -1.677136567739260E+08, 8.045686982006529E+07,
2461190.500000000, A.D. 2026-May-30 00:00:00.0000, 3.257618003711017E+08, -1.566223790649136E+08, 8.032808152270979E+07,
2461197.500000000, A.D. 2026-Jun-06 00:00:00.0000, 3.292615518303941E+08, -1.453814010637500E+08, 8.012248176952936E+07,
2461204.500000000, A.D. 2026-Jun-13 00:00:00.0000, 3.324425489788651E+08, -1.339997231112185E+08, 7.983930594975647E+07,
2461211.500000000, A.D. 2026-Jun-20 00:00:00.0000, 3.352976934126755E+08, -1.224867420399579E+08, 7.947786342853729E+07,
2461218.500000000, A.D. 2026-Jun-27 00:00:00.0000, 3.378201082664716E+08, -1.108522516839995E+08, 7.903754228159335E+07,
2461225.500000000, A.D. 2026-Jul-04 00:00:00.0000, 3.400031619697374E+08, -9.910644200088327E+07, 7.851781412680328E+07,
2461232.500000000, A.D. 2026-Jul-11 00:00:00.0000, 3.418404926576991E+08, -8.725989682354437E+07, 7.791823899574208E+07,
2461239.500000000, A.D. 2026-Jul-18 00:00:00.0000, 3.433260332527171E+08, -7.532359010193163E+07, 7.723847021328565E+07,
2461246.500000000, A.D. 2026-Jul-25 00:00:00.0000, 3.444540371505181E+08, -6.330888051936331E+07, 7.647825925532466E+07,
2461253.500000000, A.D. 2026-Aug-01 00:00:00.0000, 3.452191044553403E+08, -5.122750442350661E+07, 7.563746054582372E+07,
2461260.500000000, A.D. 2026-Aug-08 00:00:00.0000, 3.456162088592431E+08, -3.909156700555093E+07, 7.471603613700265E+07,
2461267.500000000, A.D. 2026-Aug-15 00:00:00.0000, 3.456407254438490E+08, -2.691353118030609E+07, 7.371406023411083E+07,
2461274.500000000, A.D. 2026-Aug-22 00:00:00.0000, 3.452884584942589E+08, -1.470620285442468E+07, 7.263172369645061E+07,
2461281.500000000, A.D. 2026-Aug-29 00:00:00.0000, 3.445556668791547E+08, -2.482713878027450E+06, 7.146933857590750E+07,
2461288.500000000, A.D. 2026-Sep-05 00:00:00.0000, 3.434390889569218E+08, 9.743494511414569E+06, 7.022734222246929E+07,
$$EOE